{"type": "FeatureCollection", "features": [{"type": "Feature", "properties": {"name": "Eastern Suburbs", "slug": "eastern-suburbs", "origin": "hand_drawn"}, "geometry": {"type": "Polygon", "coordinates": [[[151.181488, -33.922566], [151.165009, -33.932251], [151.165009, -33.944784], [151.182861, -33.963295], [151.190071, -33.949341], [151.221657, -33.968705], [151.212044, -33.975823], [151.23333, -33.976677], [151.23745, -33.990626], [151.245003, -33.996889], [151.277275, -33.891222], [151.285515, -33.889227], [151.283112, -33.840194], [151.267319, -33.86899], [151.239853, -33.870701], [151.244316, -33.901197], [151.22509, -33.909175], [151.206207, -33.905756], [151.181488, -33.922566]]]}}, {"type": "Feature", "properties": {"name": "City", "slug": "city", "origin": "hand_drawn"}, "geometry": {"type": "Polygon", "coordinates": [[[151.203203, -33.905186], [151.224833, -33.909104], [151.243715, -33.901054], [151.239681, -33.869703], [151.235991, -33.870843], [151.23024, -33.87462], [151.226292, -33.866567], [151.221828, -33.868634], [151.21685, -33.861507], [151.206293, -33.860937], [151.202688, -33.861293], [151.20183, -33.872482], [151.19462, -33.863645], [151.18844, -33.86728], [151.203203, -33.905186]]]}}, {"type": "Feature", "properties": {"name": "Inner Inner West", "slug": "inner-inner-west", "origin": "hand_drawn"}, "geometry": {"type": "Polygon", "coordinates": [[[151.1905, -33.874549], [151.203632, -33.906896], [151.182346, -33.921426], [151.119518, -33.917865], [151.125183, -33.896495], [151.115828, -33.895925], [151.108961, -33.902978], [151.096773, -33.90312], [151.091022, -33.893574], [151.107931, -33.890652], [151.112137, -33.870202], [151.133423, -33.87405], [151.142349, -33.871342], [151.15222, -33.872126], [151.153593, -33.866567], [151.165695, -33.86058], [151.174278, -33.860723], [151.183033, -33.86728], [151.17445, -33.870843], [151.177969, -33.873836], [151.184578, -33.872268], [151.1905, -33.874549]]]}}, {"type": "Feature", "properties": {"name": "Inner South", "slug": "inner-south", "origin": "hand_drawn"}, "geometry": {"type": "Polygon", "coordinates": [[[151.178913, -33.922281], [151.163807, -33.932109], [151.165352, -33.949768], [151.156425, -33.957742], [151.147842, -33.987922], [151.146297, -33.996818], [151.139688, -33.997173], [151.139688, -34.002937], [151.125784, -34.002652], [151.123896, -33.997031], [151.131105, -33.985218], [151.1269, -33.98351], [151.114883, -33.995964], [151.104155, -34.000304], [151.104069, -33.989559], [151.100636, -33.988136], [151.098318, -33.993046], [151.087675, -33.990199], [151.093941, -33.984008], [151.086645, -33.981517], [151.080894, -33.992619], [151.070681, -33.99084], [151.075659, -33.982727], [151.071281, -33.982513], [151.067247, -33.987922], [151.064758, -33.987922], [151.06493, -33.982656], [151.056604, -33.985858], [151.055059, -33.984364], [151.052914, -33.990484], [151.036434, -33.989701], [151.033773, -33.986428], [151.034288, -33.984577], [151.040554, -33.981232], [151.037722, -33.978172], [151.044073, -33.973332], [151.04682, -33.968207], [151.039267, -33.973759], [151.026478, -33.975752], [151.02459, -33.967281], [151.047421, -33.915016], [151.178913, -33.922281]]]}}, {"type": "Feature", "properties": {"name": "Inner West", "slug": "inner-west", "origin": "hand_drawn"}, "geometry": {"type": "Polygon", "coordinates": [[[151.123638, -33.897635], [151.118832, -33.918862], [151.045532, -33.914446], [151.038494, -33.900484], [151.051025, -33.898204], [151.060295, -33.885522], [151.067848, -33.874691], [151.06184, -33.860295], [151.059952, -33.841334], [151.07317, -33.83392], [151.079521, -33.838625], [151.083298, -33.853168], [151.087589, -33.825364], [151.094971, -33.825079], [151.102695, -33.845754], [151.106644, -33.839766], [151.118317, -33.844328], [151.113167, -33.858157], [151.11763, -33.863716], [151.127071, -33.847893], [151.142521, -33.852883], [151.151104, -33.846039], [151.162262, -33.855734], [151.141319, -33.864714], [151.141148, -33.869845], [151.112823, -33.869133], [151.105785, -33.88766], [151.089306, -33.892647], [151.096172, -33.903761], [151.10939, -33.904046], [151.1166, -33.896495], [151.123638, -33.897635]]]}}, {"type": "Feature", "properties": {"name": "South", "slug": "south", "origin": "hand_drawn"}, "geometry": {"type": "Polygon", "coordinates": [[[151.226635, -34.003577], [151.22303, -34.039289], [151.181488, -34.034879], [151.154709, -34.051664], [151.153164, -34.070862], [151.143551, -34.053797], [151.137371, -34.072142], [151.136513, -34.055219], [151.126556, -34.067023], [151.112137, -34.071573], [151.113682, -34.044837], [151.101322, -34.042988], [151.103554, -34.058064], [151.094799, -34.049104], [151.088791, -34.053086], [151.076431, -34.052375], [151.040897, -34.047966], [151.048279, -34.008416], [151.063385, -33.99817], [151.07317, -34.002154], [151.082268, -33.9976], [151.089821, -34.001585], [151.083126, -34.011262], [151.097717, -34.001016], [151.109219, -34.007704], [151.117458, -34.014819], [151.12484, -34.012969], [151.128273, -34.021222], [151.131363, -34.031181], [151.144581, -34.03872], [151.159, -34.038009], [151.161747, -34.02862], [151.166553, -34.024067], [151.174793, -34.020368], [151.196079, -34.020226], [151.209984, -34.012258], [151.218224, -34.004289], [151.221313, -34.000589], [151.226635, -34.003577]]]}}, {"type": "Feature", "properties": {"name": "Inner North", "slug": "inner-north", "origin": "hand_drawn"}, "geometry": {"type": "Polygon", "coordinates": [[[151.292725, -33.745468], [151.302681, -33.76659], [151.293755, -33.78143], [151.286545, -33.788564], [151.292381, -33.797694], [151.305428, -33.804541], [151.301994, -33.822227], [151.288605, -33.820515], [151.285858, -33.803971], [151.273842, -33.797123], [151.265945, -33.796553], [151.272469, -33.806253], [151.258049, -33.812529], [151.247406, -33.796553], [151.246719, -33.811958], [151.253586, -33.828501], [151.263885, -33.825079], [151.255302, -33.838768], [151.245346, -33.842475], [151.228867, -33.83392], [151.228523, -33.843045], [151.204491, -33.845612], [151.191444, -33.833064], [151.176338, -33.82736], [151.169128, -33.830783], [151.146126, -33.812243], [151.145096, -33.829927], [151.171532, -33.839338], [151.133423, -33.836487], [151.10939, -33.826505], [151.089134, -33.815096], [151.072655, -33.815666], [151.060295, -33.820801], [151.056862, -33.743755], [151.292725, -33.745468]]]}}, {"type": "Feature", "properties": {"name": "North", "slug": "north", "origin": "hand_drawn"}, "geometry": {"type": "Polygon", "coordinates": [[[151.312637, -33.742613], [151.062355, -33.742898], [151.094627, -33.698351], [151.092567, -33.671497], [151.10527, -33.656352], [151.150589, -33.61319], [151.163292, -33.638633], [151.139946, -33.673783], [151.193504, -33.666925], [151.277962, -33.595175], [151.271782, -33.649208], [151.287575, -33.646064], [151.300621, -33.662639], [151.324997, -33.584307], [151.337357, -33.624626], [151.33152, -33.636632], [151.33152, -33.645492], [151.320877, -33.645492], [151.323624, -33.662925], [151.309547, -33.672926], [151.311264, -33.685211], [151.301994, -33.692638], [151.299591, -33.707205], [151.295815, -33.71663], [151.299591, -33.731193], [151.306458, -33.73833], [151.312637, -33.742613]]]}}, {"type": "Feature", "properties": {"name": "West", "slug": "west", "origin": "hand_drawn"}, "geometry": {"type": "Polygon", "coordinates": [[[151.072998, -33.820801], [151.080036, -33.822654], [151.084671, -33.822227], [151.07008, -33.830498], [151.065617, -33.831211], [151.064587, -33.835774], [151.055832, -33.840764], [151.056519, -33.850744], [151.057034, -33.857159], [151.05875, -33.861578], [151.067333, -33.874549], [151.050854, -33.896922], [151.038151, -33.899629], [151.045361, -33.916298], [151.015148, -33.984933], [151.021328, -33.978528], [151.033859, -33.978385], [151.034374, -33.980805], [151.028881, -33.983652], [151.031456, -33.989061], [151.031628, -33.993188], [151.050339, -33.995323], [151.059952, -33.991196], [151.063728, -33.993758], [151.05051, -34.002012], [151.043301, -34.006424], [151.047764, -34.009412], [151.040039, -34.048819], [150.806408, -34.07527], [150.711994, -34.061761], [150.770531, -33.790276], [150.663071, -33.776294], [150.6847, -33.69578], [150.745468, -33.586023], [150.845547, -33.605756], [151.076775, -33.721199], [151.060982, -33.742898], [151.053772, -33.742756], [151.059608, -33.821514], [151.060982, -33.825649], [151.072998, -33.820801]]]}}, {"type": "Feature", "properties": {"name": "Newcastle", "slug": "newcastle", "origin": "algorithmic"}, "geometry": {"type": "Polygon", "coordinates": [[[151.72119225214752, -32.9509245927748], [151.72113245861019, -32.95093000657736], [151.7210844567348, -32.95092972536829], [151.72103670358715, -32.950924837012835], [151.72098964033006, -32.9509153866716], [151.72093218385191, -32.95089797031463], [151.69098292149542, -32.94022300866549], [151.69092893670586, -32.940200873743755], [151.69088761208164, -32.94017922531728], [151.69084848760022, -32.94015381559669], [151.69081190460582, -32.94012486627082], [151.69077818226927, -32.940092629910005], [151.69074761480329, -32.94005738776253], [151.6907204688956, -32.94001944730062], [151.69069698138264, -32.939979139538615], [151.69067735718278, -32.93993681614422], [151.69065785943357, -32.93988182387129], [151.6890783907752, -32.93466529438949], [151.67467454573682, -32.886285666741195], [151.67465938329198, -32.886223118217146], [151.67465247171893, -32.88617213070398], [151.67465084385483, -32.8861207026337], [151.67465451698467, -32.886069380080485], [151.6746656933246, -32.88600599779694], [151.67690682884327, -32.87626259076437], [151.67692523470012, -32.87619846611024], [151.67694533293695, -32.87614906504324], [151.6769705859319, -32.8761020896162], [151.6770007055433, -32.87605807582819], [151.677044039735, -32.876007352118854], [151.69549358184545, -32.85661273068225], [151.69553855368613, -32.85656993156772], [151.69557772813585, -32.85653945178647], [151.69561973482797, -32.856513011431296], [151.69566415877674, -32.85649087170756], [151.69571056111536, -32.85647325133485], [151.69575848343325, -32.85646032438554], [151.69580745230363, -32.85645221856557], [151.69585698396043, -32.85644901395277], [151.69590658907828, -32.856450742205624], [151.6959681128237, -32.856459052406315], [151.81020238276017, -32.87771598223827], [151.81026124735297, -32.87772991520735], [151.81030701311798, -32.87774555524735], [151.8103510514316, -32.87776554882192], [151.8103929492814, -32.877789708421716], [151.8104323137297, -32.87781780746668], [151.81046877559712, -32.87784958243001], [151.81050199292744, -32.87788473531142], [151.81053165419232, -32.877922936430025], [151.81055748121415, -32.87796382751738], [151.81057923177497, -32.87800702507762], [151.8105967018874, -32.87805212398286], [151.81060972770845, -32.878098701274375], [151.81061818707573, -32.87814632012789], [151.81062200065318, -32.878194533950754], [151.8106211326753, -32.87824289057086], [151.81061559128239, -32.878290936476446], [151.81060288026572, -32.87835007696992], [151.80011450428086, -32.917753289167294], [151.8000960454703, -32.91781115533248], [151.80007686341278, -32.917855768705955], [151.8000534389749, -32.917898308101634], [151.80002599364897, -32.91793837128358], [151.79998696214759, -32.91798490903813], [151.7887512939752, -32.93012955361483], [151.7887141858264, -32.930166437652744], [151.7886741214968, -32.930200087266], [151.7783053094267, -32.93819281742058], [151.77824961817447, -32.93823112793731], [151.77819011273306, -32.93826319526882], [151.7640285789782, -32.944932528557125], [151.763970489767, -32.94495639570665], [151.76392236644108, -32.94497071724873], [151.76386067958072, -32.94498249555839], [151.72119225214752, -32.9509245927748]]]}}, {"type": "Feature", "properties": {"name": "Wollongong", "slug": "wollongong", "origin": "algorithmic"}, "geometry": {"type": "Polygon", "coordinates": [[[150.86205688391286, -34.627586964294146], [150.86200484161245, -34.62761986910259], [150.86196084512753, -34.6276419525157], [150.86191488816695, -34.62765959693616], [150.86186741729907, -34.6276726309114], [150.86181889380327, -34.62768092778887], [150.86176978918783, -34.62768440694691], [150.86172058060706, -34.627683034578205], [150.86167174622622, -34.62767682401819], [150.8616237605741, -34.62766583561555], [150.861577089932, -34.62765017614566], [150.86153218780416, -34.627629997773475], [150.86148949050857, -34.627605496574056], [150.8614393630264, -34.627569742372195], [150.84560187769367, -34.61505124211473], [150.84555505931525, -34.61501028714737], [150.8455125466391, -34.614964878533534], [150.80484759734952, -34.566945366604536], [150.80480967556187, -34.566895756440566], [150.80478346892787, -34.566853264149], [150.80476163601242, -34.566808367530534], [150.80474439502564, -34.56676151530661], [150.804731918283, -34.566713175742926], [150.80472433048385, -34.56666383197117], [150.80472170746458, -34.566613977159115], [150.80472407544113, -34.56656410958229], [150.8047332503192, -34.566502343475385], [150.83130424348545, -34.433699592462595], [150.83549230769003, -34.41316730532392], [150.8355064471377, -34.41311133341304], [150.83552183599846, -34.413067814615545], [150.8355411767606, -34.413025902352736], [150.83556430423286, -34.41298595460116], [150.8355977179211, -34.412938876858995], [150.86934618308476, -34.369764497252575], [150.86937835328092, -34.36972606169701], [150.88120154630235, -34.35652299058401], [150.88124536781314, -34.35647871166298], [150.8812837553376, -34.35644697668375], [150.881325113166, -34.35641922346887], [150.8813690298872, -34.35639572809622], [150.88141506863414, -34.35637672428895], [150.88146277143153, -34.35636240108943], [150.8815116637502, -34.35635290097936], [150.88156125922845, -34.35634831846214], [150.88161106450943, -34.35634869912288], [150.881673002669, -34.35635537835148], [150.91035833927447, -34.36090550742899], [150.91044709527552, -34.36092516608049], [150.9235507638825, -34.36467378896623], [150.92360979134907, -34.364693913429775], [150.92365514415195, -34.36471462877041], [150.9237090040664, -34.36474606673305], [150.93122293646027, -34.36965061379075], [150.93127247481652, -34.36968652761628], [150.93130908227263, -34.3697189787918], [150.93134233905056, -34.36975485596256], [150.9313719260249, -34.36979381485835], [150.93139755928587, -34.36983548163857], [150.931418992862, -34.36987945647748], [150.93143602108117, -34.36992531740158], [150.93144848054447, -34.36997262433999], [150.93145625169345, -34.370020923345066], [150.9314592599578, -34.37006975094986], [150.93145702925793, -34.370130897295546], [150.92076441662476, -34.4949389041676], [150.9207575064269, -34.49499479212755], [150.90410486950378, -34.59780820586379], [150.90409187739633, -34.597869043343294], [150.90407670334307, -34.597916408583615], [150.90405689298078, -34.5979620294941], [150.9040326428189, -34.59800545353703], [150.90400419340637, -34.59804624996854], [150.90397182694733, -34.59808401410814], [150.90393586450105, -34.59811837135418], [150.9038868318931, -34.59815665708429], [150.86205688391286, -34.627586964294146]]]}}, {"type": "Feature", "properties": {"name": "North North", "slug": "north-north", "origin": "algorithmic"}, "geometry": {"type": "Polygon", "coordinates": [[[151.32944543297177, -33.41712556584361], [151.339479948432, -33.41150874791834], [151.3476559609287, -33.40925888598523], [151.34433965585475, -33.41234219480722], [151.34276999554342, -33.41883934653201], [151.35109449513476, -33.42344449237029], [151.35035352808427, -33.42698552439828], [151.34689041446526, -33.43376933103594], [151.34143919068663, -33.439372677111805], [151.33712582110567, -33.43893449080285], [151.33307554906588, -33.43382793088718], [151.33851288134272, -33.42282918711471], [151.32944543297177, -33.41712556584361]]]}}, {"type": "Feature", "properties": {"name": "Queensland", "slug": "queensland", "origin": "algorithmic"}, "geometry": {"type": "Polygon", "coordinates": [[[146.73999811830987, -19.3146521602577], [146.75168269953485, -19.296296200444814], [146.75406228479667, -19.29470757320835], [146.76216198957584, -19.292603906292378], [146.7610289758809, -19.307753493526473], [146.74968241077036, -19.316956295512576], [146.73999811830987, -19.3146521602577]]]}}, {"type": "Feature", "properties": {"name": "Tasmania", "slug": "tasmania", "origin": "algorithmic"}, "geometry": {"type": "Polygon", "coordinates": [[[147.1269881376265, -41.440348057820025], [147.12918175351822, -41.43707616189517], [147.1283828544734, -41.434667402913796], [147.13345277516757, -41.43164888861637], [147.14231558274204, -41.42950711093734], [147.14165860793557, -41.4255812802201], [147.14479282861757, -41.417515883591314], [147.14716124585308, -41.41751740068522], [147.14801588146057, -41.4201603664851], [147.15215006597163, -41.42097995142395], [147.15338640166058, -41.41662328237008], [147.15733442488232, -41.417503997006044], [147.15967498030986, -41.420207292404115], [147.1584942333706, -41.4237971968079], [147.160785730143, -41.426992989644205], [147.15953771364462, -41.4297282254807], [147.15221468160712, -41.434174153829495], [147.14811691418402, -41.43177727444827], [147.1439156255294, -41.43564969147154], [147.14864681479006, -41.44513229276623], [147.13896143990002, -41.449909098642784], [147.13463348744858, -41.44826591246268], [147.13173117955222, -41.44306511045455], [147.1269881376265, -41.440348057820025]]]}}]}